QIANFAN-41              
1 62242U 24232F   25360.76026691  .00000059  00000+0  72839-4 0  9998
2 62242  89.0012  39.7824 0015299 145.0294 215.1865 13.50980523101143
QIANFAN-42              
1 62243U 24232G   25360.82180718  .00000299  00000+0  12273-3 0  9998
2 62243  89.0002  35.7482 0016408  45.5008 314.7522 14.24496322103373
QIANFAN-43              
1 62244U 24232H   25360.75611670  .00000059  00000+0  73256-4 0  9990
2 62244  89.0016  39.8488 0016673 150.4194 209.7904 13.50979446 69757
QIANFAN-44              
1 62245U 24232J   25360.81786780  .00000079  00000+0  10309-3 0  9994
2 62245  89.0014  39.6531 0014979 146.8500 213.3593 13.50981784101233
QIANFAN-45              
1 62246U 24232K   25360.78495801  .00000067  00000+0  84810-4 0  9998
2 62246  89.0018  39.8035 0015644 146.8669 213.3466 13.50977702101150
QIANFAN-46              
1 62247U 24232L   25360.80961916  .00000082  00000+0  10755-3 0  9990
2 62247  89.0014  39.8695 0015541 151.9139 208.2854 13.50979580101110
QIANFAN-47              
1 62248U 24232M   25360.81377410  .00000081  00000+0  10592-3 0  9990
2 62248  89.0010  39.8014 0015996 151.2779 208.9257 13.50979855101141
QIANFAN-48              
1 62249U 24232N   25360.77670888  .00000070  00000+0  89056-4 0  9991
2 62249  89.0014  39.8075 0018164 154.5885 205.6164 13.50981518101147
